[{"OBJECT_NAME":"SL-8 R/B","OBJECT_ID":"1990-078B","EPOCH":"2026-03-05T22:43:29.091072","MEAN_MOTION":14.88912757,"ECCENTRICITY":0.0363119,"INCLINATION":82.9,"RA_OF_ASC_NODE":254.6775,"ARG_OF_PERICENTER":26.5696,"MEAN_ANOMALY":335.3631,"EPHEMERIS_TYPE":0,"CLASSIFICATION_TYPE":"U","NORAD_CAT_ID":20775,"ELEMENT_SET_NO":999,"REV_AT_EPOCH":80874,"BSTAR":0.00051042795,"MEAN_MOTION_DOT":0.0001735,"MEAN_MOTION_DDOT":0},{"OBJECT_NAME":"SL-8 R/B","OBJECT_ID":"1991-006B","EPOCH":"2026-03-05T17:22:41.686176","MEAN_MOTION":13.77493733,"ECCENTRICITY":0.00232994,"INCLINATION":82.9465,"RA_OF_ASC_NODE":172.9938,"ARG_OF_PERICENTER":49.0675,"MEAN_ANOMALY":121.7763,"EPHEMERIS_TYPE":0,"CLASSIFICATION_TYPE":"U","NORAD_CAT_ID":21088,"ELEMENT_SET_NO":999,"REV_AT_EPOCH":76352,"BSTAR":7.2380504e-5,"MEAN_MOTION_DOT":8.8e-7,"MEAN_MOTION_DDOT":0},{"OBJECT_NAME":"OKEAN-3","OBJECT_ID":"1991-039A","EPOCH":"2026-03-05T18:08:15.391680","MEAN_MOTION":15.04770467,"ECCENTRICITY":0.00142143,"INCLINATION":82.5195,"RA_OF_ASC_NODE":340.6539,"ARG_OF_PERICENTER":352.8041,"MEAN_ANOMALY":7.2979,"EPHEMERIS_TYPE":0,"CLASSIFICATION_TYPE":"U","NORAD_CAT_ID":21397,"ELEMENT_SET_NO":999,"REV_AT_EPOCH":86444,"BSTAR":0.00031969477,"MEAN_MOTION_DOT":4.544e-5,"MEAN_MOTION_DDOT":0},{"OBJECT_NAME":"COSMOS 2151","OBJECT_ID":"1991-042A","EPOCH":"2026-03-05T22:45:00.047808","MEAN_MOTION":15.00087394,"ECCENTRICITY":0.00140455,"INCLINATION":82.4928,"RA_OF_ASC_NODE":87.2865,"ARG_OF_PERICENTER":74.877,"MEAN_ANOMALY":285.4006,"EPHEMERIS_TYPE":0,"CLASSIFICATION_TYPE":"U","NORAD_CAT_ID":21422,"ELEMENT_SET_NO":999,"REV_AT_EPOCH":86263,"BSTAR":0.00017596775,"MEAN_MOTION_DOT":2.223e-5,"MEAN_MOTION_DDOT":0},{"OBJECT_NAME":"SL-14 R/B","OBJECT_ID":"1991-042B","EPOCH":"2026-03-05T21:48:37.333152","MEAN_MOTION":14.81824472,"ECCENTRICITY":0.00156388,"INCLINATION":82.4915,"RA_OF_ASC_NODE":223.7278,"ARG_OF_PERICENTER":252.0863,"MEAN_ANOMALY":107.8646,"EPHEMERIS_TYPE":0,"CLASSIFICATION_TYPE":"U","NORAD_CAT_ID":21423,"ELEMENT_SET_NO":999,"REV_AT_EPOCH":85251,"BSTAR":7.1839714e-5,"MEAN_MOTION_DOT":5.91e-6,"MEAN_MOTION_DDOT":0},{"OBJECT_NAME":"ERS-1","OBJECT_ID":"1991-050A","EPOCH":"2026-03-05T22:38:58.512192","MEAN_MOTION":14.3944555,"ECCENTRICITY":0.00314256,"INCLINATION":98.7885,"RA_OF_ASC_NODE":83.0842,"ARG_OF_PERICENTER":211.7332,"MEAN_ANOMALY":148.1962,"EPHEMERIS_TYPE":0,"CLASSIFICATION_TYPE":"U","NORAD_CAT_ID":21574,"ELEMENT_SET_NO":999,"REV_AT_EPOCH":81519,"BSTAR":0.00012866112,"MEAN_MOTION_DOT":3.56e-6,"MEAN_MOTION_DDOT":0},{"OBJECT_NAME":"ARIANE 40 R/B","OBJECT_ID":"1991-050F","EPOCH":"2026-03-05T17:25:44.812704","MEAN_MOTION":14.42890414,"ECCENTRICITY":0.00043532,"INCLINATION":98.202,"RA_OF_ASC_NODE":117.1112,"ARG_OF_PERICENTER":89.9282,"MEAN_ANOMALY":270.2407,"EPHEMERIS_TYPE":0,"CLASSIFICATION_TYPE":"U","NORAD_CAT_ID":21610,"ELEMENT_SET_NO":999,"REV_AT_EPOCH":81842,"BSTAR":0.00014102686,"MEAN_MOTION_DOT":4.29e-6,"MEAN_MOTION_DDOT":0},{"OBJECT_NAME":"INTERCOSMOS 25","OBJECT_ID":"1991-086A","EPOCH":"2026-03-05T16:40:56.389440","MEAN_MOTION":12.11987048,"ECCENTRICITY":0.14870069,"INCLINATION":82.6058,"RA_OF_ASC_NODE":312.4229,"ARG_OF_PERICENTER":125.5367,"MEAN_ANOMALY":249.3693,"EPHEMERIS_TYPE":0,"CLASSIFICATION_TYPE":"U","NORAD_CAT_ID":21819,"ELEMENT_SET_NO":999,"REV_AT_EPOCH":49620,"BSTAR":0.0003154553,"MEAN_MOTION_DOT":1.644e-5,"MEAN_MOTION_DDOT":0},{"OBJECT_NAME":"SL-8 R/B","OBJECT_ID":"1992-008B","EPOCH":"2026-03-05T22:48:46.786464","MEAN_MOTION":13.75969754,"ECCENTRICITY":0.00353599,"INCLINATION":82.9227,"RA_OF_ASC_NODE":270.5606,"ARG_OF_PERICENTER":143.5165,"MEAN_ANOMALY":327.2095,"EPHEMERIS_TYPE":0,"CLASSIFICATION_TYPE":"U","NORAD_CAT_ID":21876,"ELEMENT_SET_NO":999,"REV_AT_EPOCH":70890,"BSTAR":-1.0613711e-5,"MEAN_MOTION_DOT":5.0e-8,"MEAN_MOTION_DDOT":0},{"OBJECT_NAME":"SL-8 R/B","OBJECT_ID":"1992-020B","EPOCH":"2026-03-05T16:52:11.342784","MEAN_MOTION":13.75548996,"ECCENTRICITY":0.00278105,"INCLINATION":82.9341,"RA_OF_ASC_NODE":156.721,"ARG_OF_PERICENTER":310.404,"MEAN_ANOMALY":166.8656,"EPHEMERIS_TYPE":0,"CLASSIFICATION_TYPE":"U","NORAD_CAT_ID":21938,"ELEMENT_SET_NO":999,"REV_AT_EPOCH":70058,"BSTAR":9.6012269e-5,"MEAN_MOTION_DOT":1.08e-6,"MEAN_MOTION_DDOT":0},{"OBJECT_NAME":"USA 81","OBJECT_ID":"1992-023A","EPOCH":"2026-03-05T16:14:45.355776","MEAN_MOTION":14.32366484,"ECCENTRICITY":0.00025713,"INCLINATION":85.0092,"RA_OF_ASC_NODE":133.756,"ARG_OF_PERICENTER":80.6897,"MEAN_ANOMALY":279.4586,"EPHEMERIS_TYPE":0,"CLASSIFICATION_TYPE":"U","NORAD_CAT_ID":21949,"ELEMENT_SET_NO":999,"REV_AT_EPOCH":9421,"BSTAR":8.2214401e-5,"MEAN_MOTION_DOT":2.42e-6,"MEAN_MOTION_DDOT":0},{"OBJECT_NAME":"COSMOS 2219","OBJECT_ID":"1992-076A","EPOCH":"2026-03-05T23:37:06.052512","MEAN_MOTION":14.14090887,"ECCENTRICITY":0.00192212,"INCLINATION":71.0625,"RA_OF_ASC_NODE":25.8131,"ARG_OF_PERICENTER":212.0008,"MEAN_ANOMALY":147.9949,"EPHEMERIS_TYPE":0,"CLASSIFICATION_TYPE":"U","NORAD_CAT_ID":22219,"ELEMENT_SET_NO":999,"REV_AT_EPOCH":71785,"BSTAR":0.00015330408,"MEAN_MOTION_DOT":2.45e-6,"MEAN_MOTION_DDOT":0},{"OBJECT_NAME":"SL-16 R/B","OBJECT_ID":"1992-076B","EPOCH":"2026-03-05T20:00:12.753216","MEAN_MOTION":14.16860314,"ECCENTRICITY":0.00105246,"INCLINATION":71.0002,"RA_OF_ASC_NODE":196.4956,"ARG_OF_PERICENTER":103.4998,"MEAN_ANOMALY":59.0645,"EPHEMERIS_TYPE":0,"CLASSIFICATION_TYPE":"U","NORAD_CAT_ID":22220,"ELEMENT_SET_NO":999,"REV_AT_EPOCH":72128,"BSTAR":1.474668e-6,"MEAN_MOTION_DOT":-4.5e-7,"MEAN_MOTION_DDOT":0},{"OBJECT_NAME":"COSMOS 2221","OBJECT_ID":"1992-080A","EPOCH":"2026-03-05T16:35:50.157600","MEAN_MOTION":14.96183542,"ECCENTRICITY":0.00136766,"INCLINATION":82.5012,"RA_OF_ASC_NODE":282.9117,"ARG_OF_PERICENTER":201.001,"MEAN_ANOMALY":159.0652,"EPHEMERIS_TYPE":0,"CLASSIFICATION_TYPE":"U","NORAD_CAT_ID":22236,"ELEMENT_SET_NO":999,"REV_AT_EPOCH":78019,"BSTAR":0.00023392993,"MEAN_MOTION_DOT":2.665e-5,"MEAN_MOTION_DDOT":0},{"OBJECT_NAME":"SL-16 R/B","OBJECT_ID":"1992-093B","EPOCH":"2026-03-05T22:09:34.146432","MEAN_MOTION":14.15449013,"ECCENTRICITY":0.00063544,"INCLINATION":71.0239,"RA_OF_ASC_NODE":12.1715,"ARG_OF_PERICENTER":297.6678,"MEAN_ANOMALY":62.3799,"EPHEMERIS_TYPE":0,"CLASSIFICATION_TYPE":"U","NORAD_CAT_ID":22285,"ELEMENT_SET_NO":999,"REV_AT_EPOCH":71262,"BSTAR":-7.5538443e-5,"MEAN_MOTION_DOT":-1.95e-6,"MEAN_MOTION_DDOT":0},{"OBJECT_NAME":"COSMOS 2228","OBJECT_ID":"1992-094A","EPOCH":"2026-03-05T23:28:10.433856","MEAN_MOTION":14.97167409,"ECCENTRICITY":0.00170171,"INCLINATION":82.5149,"RA_OF_ASC_NODE":240.865,"ARG_OF_PERICENTER":317.8938,"MEAN_ANOMALY":42.0976,"EPHEMERIS_TYPE":0,"CLASSIFICATION_TYPE":"U","NORAD_CAT_ID":22286,"ELEMENT_SET_NO":999,"REV_AT_EPOCH":77550,"BSTAR":0.00023346068,"MEAN_MOTION_DOT":2.73e-5,"MEAN_MOTION_DDOT":0},{"OBJECT_NAME":"SL-16 R/B","OBJECT_ID":"1993-016B","EPOCH":"2026-03-05T21:25:28.613856","MEAN_MOTION":14.15306792,"ECCENTRICITY":0.00115243,"INCLINATION":71.0063,"RA_OF_ASC_NODE":223.1556,"ARG_OF_PERICENTER":319.4689,"MEAN_ANOMALY":40.5575,"EPHEMERIS_TYPE":0,"CLASSIFICATION_TYPE":"U","NORAD_CAT_ID":22566,"ELEMENT_SET_NO":999,"REV_AT_EPOCH":70163,"BSTAR":0.0001609304,"MEAN_MOTION_DOT":2.66e-6,"MEAN_MOTION_DDOT":0}]
